NORAD_CAT_ID,OBJECT_NAME,OBJECT_TYPE,EPOCH,MEAN_MOTION,ECCENTRICITY,INCLINATION,RA_OF_ASC_NODE,ARG_OF_PERICENTER,MEAN_ANOMALY,BSTAR,MEAN_MOTION_DOT,MEAN_MOTION_DDOT,TLE_LINE0,TLE_LINE1,TLE_LINE2,SEMIMAJOR_AXIS,PERIOD,APOGEE,PERIGEE,DECAYED
55953.0,STARLINK-5889,PAYLOAD,2023-05-04 03:03:17,15.69947742,0.0003092,70.0017,47.9114,256.3249,103.7603,-2.2999e-05,-2.98e-05,0.0,0 STARLINK-5889,1 55953U 23037AR  23124.12728384 -.00002980  00000-0 -22999-4 0  9995,2 55953  70.0017  47.9114 0003092 256.3249 103.7603 15.69947742  7961,6737.184,91.723,361.132,356.965,0.0
55953.0,STARLINK-5889,PAYLOAD,2023-05-04 04:35:04,15.69919701,0.0002432,70.0023,47.731,287.8569,72.2361,-2.2212e-06,-4.79e-06,0.0,0 STARLINK-5889,1 55953U 23037AR  23124.19101885 -.00000479  00000-0 -22212-5 0  9993,2 55953  70.0023  47.7310 0002432 287.8569  72.2361 15.69919701  7971,6737.264,91.724,360.767,357.49,0.0
55953.0,STARLINK-5889,PAYLOAD,2023-05-04 21:24:19,15.69927436,0.0003024,70.0041,45.7636,254.4173,105.6689,3.3596e-05,3.829e-05,0.0,0 STARLINK-5889,1 55953U 23037AR  23124.89189741  .00003829  00000-0  33596-4 0  9993,2 55953  70.0041  45.7636 0003024 254.4173 105.6689 15.69927436  8080,6737.242,91.724,361.144,357.069,0.0
55953.0,STARLINK-5889,PAYLOAD,2023-05-05 20:20:36,15.69925523,0.0003367,70.0029,43.075,266.3931,93.688,1.0267e-05,1.022e-05,0.0,0 STARLINK-5889,1 55953U 23037AR  23125.84764953  .00001022  00000-0  10267-4 0  9996,2 55953  70.0029  43.0750 0003367 266.3931  93.6880 15.69925523  7890,6737.247,91.724,361.381,356.844,0.0
55953.0,STARLINK-5889,PAYLOAD,2023-05-05 21:52:21,15.69927452,0.0003567,70.0014,42.8956,261.3543,98.7249,2.6532e-06,1.06e-06,0.0,0 STARLINK-5889,1 55953U 23037AR  23125.91136464  .00000106  00000-0  26532-5 0  9999,2 55953  70.0014  42.8956 0003567 261.3543  98.7249 15.69927452  8243,6737.242,91.724,361.51,356.703,0.0
55953.0,STARLINK-5889,PAYLOAD,2023-05-06 03:59:22,15.69932402,0.0003481,70.0007,42.178,262.8246,97.2554,1.1313e-05,1.148e-05,0.0,0 STARLINK-5889,1 55953U 23037AR  23126.16622916  .00001148  00000-0  11313-4 0  9996,2 55953  70.0007  42.1780 0003481 262.8246  97.2554 15.69932402  7944,6737.227,91.724,361.438,356.747,0.0
55953.0,STARLINK-5889,PAYLOAD,2023-05-06 20:48:37,15.69944966,0.0003592,70.0001,40.2068,267.154,92.9244,2.0523e-05,2.258e-05,0.0,0 STARLINK-5889,1 55953U 23037AR  23126.86710425  .00002258  00000-0  20523-4 0  9992,2 55953  70.0001  40.2068 0003592 267.1540  92.9244 15.69944966  8390,6737.191,91.723,361.476,356.636,0.0
55953.0,STARLINK-5889,PAYLOAD,2023-05-07 04:27:24,15.6991153,0.000353,70.0028,39.3135,265.0385,95.0408,-1.6149e-05,-2.153e-05,0.0,0 STARLINK-5889,1 55953U 23037AR  23127.18570571 -.00002153  00000-0 -16149-4 0  9999,2 55953  70.0028  39.3135 0003530 265.0385  95.0408 15.69911530  8442,6737.287,91.725,361.53,356.774,0.0
55953.0,STARLINK-5889,PAYLOAD,2023-05-07 21:16:40,15.69925813,0.0004102,70.0008,37.3432,267.2602,92.8124,7.0407e-06,6.34e-06,0.0,0 STARLINK-5889,1 55953U 23037AR  23127.88658469  .00000634  00000-0  70407-5 0  9997,2 55953  70.0008  37.3432 0004102 267.2602  92.8124 15.69925813  8551,6737.246,91.724,361.875,356.348,0.0
55953.0,STARLINK-5889,PAYLOAD,2023-05-08 20:12:57,15.69922905,0.0003778,70.0012,34.656,262.4404,97.6363,-1.6981e-05,-2.254e-05,0.0,0 STARLINK-5889,1 55953U 23037AR  23128.84233454 -.00002254  00000-0 -16981-4 0  9995,2 55953  70.0012  34.6560 0003778 262.4404  97.6363 15.69922905  8369,6737.255,91.724,361.665,356.574,0.0
55953.0,STARLINK-5889,PAYLOAD,2023-05-09 03:51:42,15.69932654,0.0003698,70.0014,33.7596,248.7081,111.3721,1.4937e-06,-3.3e-07,0.0,0 STARLINK-5889,1 55953U 23037AR  23129.16091270 -.00000033  00000-0  14937-5 0  9991,2 55953  70.0014  33.7596 0003698 248.7081 111.3721 15.69932654  8419,6737.227,91.724,361.583,356.6,0.0
55953.0,STARLINK-5889,PAYLOAD,2023-05-10 01:16:15,15.69922969,0.0003712,70.0006,31.2524,256.1364,103.9418,1.0769e-05,1.082e-05,0.0,0 STARLINK-5889,1 55953U 23037AR  23130.05295307  .00001082  00000-0  10769-4 0  9990,2 55953  70.0006  31.2524 0003712 256.1364 103.9418 15.69922969  8551,6737.254,91.724,361.62,356.619,0.0
55953.0,STARLINK-5889,PAYLOAD,2023-05-10 19:37:16,15.69925133,0.0003766,69.9995,29.0996,268.6916,91.3848,2.4956e-05,2.789e-05,0.0,0 STARLINK-5889,1 55953U 23037AR  23130.81755392  .00002789  00000-0  24956-4 0  9997,2 55953  69.9995  29.0996 0003766 268.6916  91.3848 15.69925133  8679,6737.248,91.724,361.65,356.576,0.0
55953.0,STARLINK-5889,PAYLOAD,2023-05-11 03:16:02,15.69930258,0.0003477,70.0011,28.2061,270.1875,89.8922,1.5132e-05,1.608e-05,0.0,0 STARLINK-5889,1 55953U 23037AR  23131.13613486  .00001608  00000-0  15132-4 0  9995,2 55953  70.0011  28.2061 0003477 270.1875  89.8922 15.69930258  8721,6737.234,91.724,361.441,356.756,0.0
55953.0,STARLINK-5889,PAYLOAD,2023-05-12 00:40:33,15.69939403,0.0003532,70.0005,25.6973,262.8689,97.2106,4.7264e-05,5.478e-05,0.0,0 STARLINK-5889,1 55953U 23037AR  23132.02816611  .00005478  00000-0  47264-4 0  9999,2 55953  70.0005  25.6973 0003532 262.8689  97.2106 15.69939403  8863,6737.207,91.723,361.452,356.693,0.0
55953.0,STARLINK-5889,PAYLOAD,2023-05-12 19:01:35,15.69924105,0.000348,70.001,23.5488,270.619,89.4607,-2.3517e-06,-4.96e-06,0.0,0 STARLINK-5889,1 55953U 23037AR  23132.79277349 -.00000496  00000-0 -23517-5 0  9995,2 55953  70.0010  23.5488 0003480 270.6190  89.4607 15.69924105  9327,6737.251,91.724,361.461,356.772,0.0
55953.0,STARLINK-5889,PAYLOAD,2023-05-13 04:11:35,15.70601331,0.0005775,70.0016,22.4739,285.4388,74.617,0.0012672,0.00159589,0.0,0 STARLINK-5889,1 55953U 23037AR  23133.17472211  .00159589  00000-0  12672-2 0  9996,2 55953  70.0016  22.4739 0005775 285.4388  74.6170 15.70601331  9384,6735.314,91.685,361.069,353.29,0.0
55953.0,STARLINK-5889,PAYLOAD,2023-05-13 14:00:01,15.69885154,0.0003663,70.0009,21.3243,264.0828,242.7431,0.00072302,0.00087499,0.0,0 STARLINK-5889,1 55953U 23037AR  23133.58334491  .00087499  00000-0  72302-3 0  9995,2 55953  70.0009  21.3243 0003663 264.0828 242.7431 15.69885154  9440,6737.363,91.726,361.695,356.76,0.0
55953.0,STARLINK-5889,PAYLOAD,2023-05-13 19:30:21,15.68634509,0.0003839,70.0015,20.6881,6.4371,353.6872,-0.0027414,-0.00301843,0.0,0 STARLINK-5889,1 55953U 23037AR  23133.81275096 -.00301843  00000-0 -27414-2 0  9993,2 55953  70.0015  20.6881 0003839   6.4371 353.6872 15.68634509  9146,6740.943,91.8,365.396,360.22,0.0
55953.0,STARLINK-5889,PAYLOAD,2023-05-14 08:00:01,15.699643,0.0003488,70.0013,19.2154,268.4965,155.8853,-0.00079316,-0.00094677,0.0,0 STARLINK-5889,1 55953U 23037AR  23134.33335648 -.00094677  00000-0 -79316-3 0  9994,2 55953  70.0013  19.2154 0003488 268.4965 155.8853 15.69964300  9563,6737.136,91.722,361.351,356.651,0.0
55953.0,STARLINK-5889,PAYLOAD,2023-05-14 19:57:38,15.69906973,0.0002859,70.0023,17.8185,255.8128,104.275,-3.4917e-05,-4.405e-05,0.0,0 STARLINK-5889,1 55953U 23037AR  23134.83169420 -.00004405  00000-0 -34917-4 0  9991,2 55953  70.0023  17.8185 0002859 255.8128 104.2750 15.69906973  9302,6737.3,91.725,361.091,357.239,0.0
55953.0,STARLINK-5889,PAYLOAD,2023-05-15 00:32:53,15.69914247,0.0003009,70.0008,17.2798,264.0753,96.01,-2.0419e-05,-2.666e-05,0.0,0 STARLINK-5889,1 55953U 23037AR  23135.02284399 -.00002666  00000-0 -20419-4 0  9995,2 55953  70.0008  17.2798 0003009 264.0753  96.0100 15.69914247  9673,6737.279,91.725,361.172,357.117,0.0
55953.0,STARLINK-5889,PAYLOAD,2023-05-15 02:04:40,15.69922375,0.0002601,70.0011,17.0981,278.2612,81.8289,2.5326e-05,2.833e-05,0.0,0 STARLINK-5889,1 55953U 23037AR  23135.08658143  .00002833  00000-0  25326-4 0  9999,2 55953  70.0011  17.0981 0002601 278.2612  81.8289 15.69922375  9689,6737.256,91.724,360.873,357.369,0.0
55953.0,STARLINK-5889,PAYLOAD,2023-05-15 09:43:22,15.69994605,0.0002905,70.0013,16.2032,305.1169,54.9754,-0.00024489,-0.00029638,0.0,0 STARLINK-5889,1 55953U 23037AR  23135.40512273 -.00029638  00000-0 -24489-3 0  9990,2 55953  70.0013  16.2032 0002905 305.1169  54.9754 15.69994605  9732,6737.049,91.72,360.872,356.957,0.0
55953.0,STARLINK-5889,PAYLOAD,2023-05-15 17:22:34,15.69521999,0.0001406,69.9998,15.3071,98.1796,261.9559,0.0016589,0.00200715,0.0,0 STARLINK-5889,1 55953U 23037AR  23135.72400833  .00200715  00000-0  16589-2 0  9999,2 55953  69.9998  15.3071 0001406  98.1796 261.9559 15.69521999  9784,6738.402,91.748,361.214,359.319,0.0
55953.0,STARLINK-5889,PAYLOAD,2023-05-17 06:00:00,15.69935736,0.0003637,70.0007,11.0159,268.7091,74.7825,-0.0001496,-0.00018172,0.0,0 STARLINK-5889,1 55953U 23037AR  23137.25001157 -.00018172  00000-0 -14960-3 0  9993,2 55953  70.0007  11.0159 0003637 268.7091  74.7825 15.69935736 10022,6737.218,91.723,361.533,356.633,0.0
55953.0,STARLINK-5889,PAYLOAD,2023-05-17 22:00:00,15.69932707,0.0003663,70.0007,9.1415,269.9833,240.2001,-0.0002232,-0.00026976,0.0,0 STARLINK-5889,1 55953U 23037AR  23137.91667824 -.00026976  00000-0 -22320-3 0  9995,2 55953  70.0007   9.1415 0003663 269.9833 240.2001 15.69932707  1303,6737.227,91.724,361.559,356.624,0.0
55953.0,STARLINK-5889,PAYLOAD,2023-05-18 00:25:15,15.69931252,0.0003545,70.0004,8.8607,250.9344,109.1467,1.8337e-05,1.993e-05,0.0,0 STARLINK-5889,1 55953U 23037AR  23138.01754295  .00001993  00000-0  18337-4 0  9990,2 55953  70.0004   8.8607 0003545 250.9344 109.1467 15.69931252 10140,6737.231,91.724,361.484,356.707,0.0
55953.0,STARLINK-5889,PAYLOAD,2023-05-18 18:46:18,15.69910606,0.0003782,69.9997,6.7074,264.2839,95.7926,6.7272e-05,7.88e-05,0.0,0 STARLINK-5889,1 55953U 23037AR  23138.78215294  .00007880  00000-0  67272-4 0  9998,2 55953  69.9997   6.7074 0003782 264.2839  95.7926 15.69910606  9927,6737.29,91.725,361.703,356.607,0.0
55953.0,STARLINK-5889,PAYLOAD,2023-05-19 00:53:17,15.69930211,0.0003516,69.9996,5.9914,273.0084,87.0709,1.6354e-05,1.755e-05,0.0,0 STARLINK-5889,1 55953U 23037AR  23139.03701175  .00001755  00000-0  16354-4 0  9995,2 55953  69.9996   5.9914 0003516 273.0084  87.0709 15.69930211 10306,6737.234,91.724,361.467,356.73,0.0
